0 COSMOS 972
1 10539U 77123A   19096.63813990 +.00000037 +00000-0 +27227-4 0  9996
2 10539 075.8326 124.9273 0302591 144.6960 217.4638 13.88795247091127
0 INTELSAT 4A-F3
1 10557U 78002A   19096.89186042 -.00000142 +00000-0 +00000-0 0  9996
2 10557 013.6002 335.3959 0002867 329.0775 299.1037 00.99899425022487
0 INTELSAT 4A-F3
1 10557U 78002A   19096.89186042 -.00000142  00000-0  00000+0 0  9995
2 10557  13.6002 335.3959 0002867 329.0775 299.1037  0.99899425 95106
0 COSMOS 970 DEB
1 10562U 77121D   19097.75108758  .00000053  00000-0  23935-3 0  9992
2 10562  65.8699 212.7428 0100410 234.3425 246.1100 13.35791934 10699
0 COSMOS 970 DEB
1 10564U 77121F   19096.81934872 -.00000008 +00000-0 +75691-4 0  9992
2 10564 065.8631 287.6589 0158924 264.1252 192.1621 13.69521972061007
0 COSMOS 970 DEB
1 10565U 77121G   19096.94829344 +.00000093 +00000-0 +20534-3 0  9992
2 10565 065.8300 319.9685 0109667 063.4175 041.2177 13.64345684050468
0 COSMOS 970 DEB *
1 10566U 77121H   19096.96127233 +.00000109 +00000-0 +26687-3 0  9996
2 10566 065.7797 097.6381 0421516 336.1007 022.0948 13.23025265981040
0 COSMOS 970 DEB
1 10567U 77121J   19096.96694421 -.00000063 +00000-0 +19590-4 0  9991
2 10567 065.7929 272.3912 0112896 270.7412 256.1749 13.55087948041688
0 COSMOS 970 DEB
1 10568U 77121K   19096.89807716 +.00000015 +00000-0 +10207-3 0  9998
2 10568 065.7688 296.8462 0213417 266.9857 090.6760 13.63540969048411
0 COSMOS 970 DEB
1 10568U 77121K   19097.85156886  .00000018  00000-0  10593-3 0  9991
2 10568  65.7687 294.5282 0213405 266.5513  91.1114 13.63541172 48817
0 COSMOS 970 DEB
1 10569U 77121L   19097.05412254  .00000020  00000-0  99380-4 0  9993
2 10569  65.4003  51.5003 0135052 173.2536 187.0384 13.76739109 68133
0 COSMOS 970 DEB
1 10570U 77121M   19096.82841863 +.00000368 +00000-0 +46839-3 0  9996
2 10570 065.3649 253.7775 0014151 305.2180 169.9150 13.75591580045313
0 COSMOS 970 DEB
1 10570U 77121M   19097.84608993  .00000348  00000-0  44781-3 0  9996
2 10570  65.3649 251.2152 0014235 304.5434 169.8213 13.75592231 45999
0 COSMOS 970 DEB
1 10572U 77121P   19096.92906247 -.00000020 +00000-0 +59666-4 0  9996
2 10572 065.0363 007.6803 0170916 141.8501 219.4801 13.78256182073141
0 COSMOS 970 DEB
1 10573U 77121Q   19096.97278360 -.00000040 +00000-0 +48715-4 0  9995
2 10573 066.3622 267.8663 0086208 138.4080 025.3945 13.51359213034782
0 COSMOS 970 DEB
1 10573U 77121Q   19097.84904862 -.00000040  00000-0  48341-4 0  9990
2 10573  66.3623 265.8300 0086161 137.8903 328.3461 13.51359254 35172
0 COSMOS 970 DEB
1 10575U 77121S   19097.09871142 -.00000002  00000-0  95129-4 0  9997
2 10575  65.8773 140.6708 0124735 323.6255  62.2737 13.60393995 47950
0 COSMOS 970 DEB
1 10577U 77121U   19096.93395788 +.00000006 +00000-0 +94902-4 0  9999
2 10577 065.7953 305.0790 0126914 134.2236 332.3387 13.67983508058197
0 COSMOS 970 DEB
1 10578U 77121V   19096.94892543 -.00000003 +00000-0 +85196-4 0  9995
2 10578 065.7694 282.7096 0140708 209.3552 226.6561 13.67513585057857
0 COSMOS 970 DEB
1 10579U 77121W   19097.09178340 -.00000029  00000-0  90660-4 0  9995
2 10579  65.6457  83.5230 0053447 162.5034 274.4697 13.32557673  6458
0 COSMOS 970 DEB
1 10580U 77121X   19096.92572058 -.00000036 +00000-0 +67140-4 0  9997
2 10580 065.6801 245.2921 0083176 332.8685 109.3767 13.43501347021105
0 COSMOS 976
1 10581U 78005A   19096.70917003 -.00000012 +00000-0 +22902-4 0  9990
2 10581 074.0309 175.8802 0004651 071.9349 045.0004 12.51253031876232
0 COSMOS 977
1 10584U 78005B   19096.93396906 -.00000024 +00000-0 -47955-4 0  9990
2 10584 074.0283 284.3966 0040843 153.0578 317.0207 12.57942355880942
0 COSMOS 978
1 10585U 78005C   19096.90167396 -.00000000 +00000-0 +96541-4 0  9995
2 10585 074.0346 010.6312 0029550 261.1559 165.3690 12.55653893879346
0 COSMOS 978
1 10585U 78005C   19097.06875365 -.00000003  00000-0  80745-4 0  9997
2 10585  74.0346  10.4068 0029551 260.9080 200.6220 12.55653854890330
0 COSMOS 980
1 10587U 78005E   19096.93715388 -.00000033 +00000-0 -11324-3 0  9992
2 10587 074.0286 263.2636 0007680 023.5287 091.4144 12.48905630874613
0 COSMOS 981
1 10588U 78005F   19096.83561823 +.00000003 +00000-0 +12691-3 0  9998
2 10588 074.0340 355.2988 0019777 102.2216 319.8435 12.46424782872917
0 COSMOS 982
1 10589U 78005G   19096.97150317 -.00000031 +00000-0 -10636-3 0  9996
2 10589 074.0290 081.1411 0033505 211.1902 160.2863 12.44097760872727
0 COSMOS 982
1 10589U 78005G   19097.06377715 -.00000031  00000-0 -10548-3 0  9992
2 10589  74.0290  81.0199 0033510 211.0570 213.5547 12.44097765872978
0 COSMOS 983
1 10590U 78005H   19096.63347612 +.00000009 +00000-0 +18299-3 0  9993
2 10590 074.0318 178.5913 0047159 311.0066 048.6906 12.41471151868773
0 COSMOS 983
1 10590U 78005H   19097.76154159  .00000009  00000-0  17777-3 0  9990
2 10590  74.0317 177.1162 0047176 309.3545  50.3325 12.41471200869102
0 SL-8 R/B
1 10591U 78005J   19097.07740670 -.00000085  00000-0 -62282-3 0  9991
2 10591  74.0318 119.1359 0145324 328.1712  43.2630 12.23321038412160
0 SS 3
1 10594U 77112F   19097.31802820  .00001266  00000-0  91867-4 0  9997
2 10594  63.2951  47.8435 0762698 117.9503 250.0870 13.90002963   568
0 COSMOS 985
1 10599U 78007A   19096.89495343 +.00000052 +00000-0 +37327-4 0  9999
2 10599 082.9440 181.7579 0052504 349.2196 010.7831 13.76677262070229
0 COSMOS 985
1 10599U 78007A   19097.76710478  .00000051  00000-0  36106-4 0  9998
2 10599  82.9439 181.1102 0052450 346.7599  13.2177 13.76677303 70544
0 COSMOS 839 DEB
1 10613U 76067AM  19096.88323993 +.00000655 +00000-0 +15765-2 0  9999
2 10613 065.8036 033.2762 0701434 109.5097 258.3007 12.60712603957738
0 COSMOS 839 DEB
1 10616U 76067AQ  19096.80088867 +.00000030 +00000-0 +23099-3 0  9999
2 10616 065.5983 011.6553 0731213 350.8524 007.9727 12.47082324942300
0 COSMOS 839 DEB
1 10616U 76067AQ  19097.84339379  .00000023  00000-0  21161-3 0  9991
2 10616  65.5982   9.5632 0731248 350.4850   8.2897 12.47082509942610
0 COSMOS 839 DEB
1 10618U 76067AS  19097.90429994 -.00000028  00000-0  86597-4 0  9994
2 10618  65.8421 336.7945 0726369 186.1234 279.6371 12.38676679932182
0 COSMOS 839 DEB
1 10618U 76067AS  19096.93851319 -.00000056 +00000-0 +96816-6 0  9994
2 10618 065.8421 338.6837 0726421 186.5025 292.9635 12.38676343931890
0 COSMOS 839 DEB
1 10620U 76067AU  19096.65261973 +.00000125 +00000-0 +63299-3 0  9999
2 10620 065.9546 259.5356 0657593 301.1435 141.1988 12.40648804929170
0 COSMOS 839 DEB
1 10621U 76067AV  19096.68396052 -.00000036 +00000-0 +71330-4 0  9998
2 10621 066.0240 293.7139 0672337 222.0639 225.4051 12.30927852920375
0 COSMOS 839 DEB
1 10621U 76067AV  19097.02738553 -.00000036  00000-0  70768-4 0  9997
2 10621  66.0239 293.0574 0672325 221.9231 307.2371 12.30927869920666
0 COSMOS 839 DEB
1 10622U 76067AW  19096.93372918 -.00000067 +00000-0 -42584-4 0  9996
2 10622 065.9037 282.1607 0736499 089.5814 017.1697 12.33664348924693
0 DELTA 1 DEB
1 10629U 77065EY  19096.91610051 +.00000166 +00000-0 +13406-3 0  9991
2 10629 029.8294 347.5274 0822035 026.7894 337.2809 12.77662822941494
0 DELTA 1 DEB
1 10642U 76077C   19096.92147781 -.00000041 +00000-0 +73225-5 0  9994
2 10642 102.0076 121.1742 0103039 057.0610 009.9995 12.21705050904045
0 DELTA 1 DEB
1 10642U 76077C   19096.99499662 -.00000042  00000-0 -45903-5 0  9993
2 10642 102.0077 121.2444 0103043  56.9271 333.3473 12.21705044904354
0 DELTA 1 DEB
1 10643U 76077D   19096.76953337 -.00000028 +00000-0 +15486-3 0  9997
2 10643 102.2064 181.1978 0168639 289.0646 190.6751 12.10175723886419
0 DELTA 1 DEB
1 10643U 76077D   19097.76127634 -.00000027  00000-0  16654-3 0  9998
2 10643 102.2064 182.1374 0168665 287.3287 191.3456 12.10175842886648
0 DELTA 1 DEB
1 10645U 76077F   19097.00543215  .00000249  00000-0  33875-2 0  9992
2 10645 102.2574 122.8322 0223345 349.1855  78.1132 11.99060056870344
0 DELTA 1 DEB
1 10646U 76077G   19096.93750828 -.00000057  00000-0 -13287-3 0  9999
2 10646 102.2689  77.9727 0143601 242.9629 174.1137 12.14369415893522
0 DELTA 1 DEB
1 10646U 76077G   19096.93750828 -.00000057 +00000-0 -13287-3 0  9999
2 10646 102.2689 077.9727 0143601 242.9629 174.1137 12.14369415893296
0 DELTA 1 DEB
1 10647U 76077H   19097.83540647  .00000061  00000-0  11135-2 0  9998
2 10647 102.8636 174.4642 0165914 262.5901 225.8361 12.11131207888364
0 DELTA 1 DEB
1 10650U 76077L   19097.89612235  .00000064  00000-0  16267-2 0  9995
2 10650 102.0849 195.5292 0438757 218.6286 261.0209 11.57363637807342
0 DELTA 1 DEB
1 10650U 76077L   19096.77529312 +.00000069 +00000-0 +17211-2 0  9999
2 10650 102.0848 194.5783 0438711 220.4000 271.0789 11.57363436807026
0 DELTA 1 DEB
1 10652U 76077N   19096.63554876 -.00000367 +00000-0 -38078-2 0  9996
2 10652 102.9878 003.7395 0247140 242.1348 115.4450 11.96669317837591
0 DELTA 1 DEB
1 10653U 76077P   19096.71044646 -.00000116 +00000-0 -61937-3 0  9998
2 10653 102.6673 167.8077 0127089 352.1651 129.1649 12.24020456907541
0 DELTA 1 DEB
1 10653U 76077P   19097.77101257 -.00000099  00000-0 -46624-3 0  9993
2 10653 102.6672 168.8776 0127084 350.2955 122.5386 12.24020555907925
0 DELTA 1 DEB
1 10655U 76077R   19096.75496213 +.00000036 +00000-0 +79636-3 0  9999
2 10655 102.9523 159.9898 0275839 247.3916 227.9371 12.11029124888026
0 DELTA 1 DEB
1 10655U 76077R   19097.07399875  .00000025  00000-0  68985-3 0  9994
2 10655 102.9522 160.3110 0275839 246.8543 178.8429 12.11029161888308
0 DELTA 1 DEB
1 10656U 76077S   19096.95293965 -.00000035 +00000-0 +63101-4 0  9992
2 10656 101.8028 133.1874 0077303 356.2012 066.3449 12.36894929926749
0 DELTA 1 DEB
1 10662U 76077Y   19096.78655503 -.00000063 +00000-0 -64971-4 0  9998
2 10662 100.9313 158.2154 0256211 066.3503 050.6525 12.89966151998232
